NORAD_CAT_ID,OBJECT_NAME,OBJECT_TYPE,EPOCH,MEAN_MOTION,ECCENTRICITY,INCLINATION,RA_OF_ASC_NODE,ARG_OF_PERICENTER,MEAN_ANOMALY,BSTAR,MEAN_MOTION_DOT,MEAN_MOTION_DDOT,TLE_LINE0,TLE_LINE1,TLE_LINE2,SEMIMAJOR_AXIS,PERIOD,APOGEE,PERIGEE,DECAYED
53409.0,STARLINK-4490,PAYLOAD,2023-12-05 02:10:30,15.08862219,0.0001657,53.2165,210.569,140.8121,219.2991,0.00042247,6.446e-05,0.0,0 STARLINK-4490,1 53409U 22097X   23339.09062622  .00006446  00000-0  42247-3 0  9990,2 53409  53.2165 210.5690 0001657 140.8121 219.2991 15.08862219 73661,6917.812,95.436,540.824,538.531,0.0
53409.0,STARLINK-4490,PAYLOAD,2023-12-06 00:25:54,15.08834484,0.0001531,53.2167,206.408,104.4415,255.6747,-9.0084e-05,-1.721e-05,0.0,0 STARLINK-4490,1 53409U 22097X   23340.01799674 -.00001721  00000-0 -90084-4 0  9994,2 53409  53.2167 206.4080 0001531 104.4415 255.6747 15.08834484 73805,6917.897,95.438,540.821,538.703,0.0
53409.0,STARLINK-4490,PAYLOAD,2023-12-07 00:16:42,15.08837049,0.0001548,53.2172,201.9466,95.1793,264.9376,-3.569e-05,-8.56e-06,0.0,0 STARLINK-4490,1 53409U 22097X   23341.01160305 -.00000856  00000-0 -35690-4 0  9998,2 53409  53.2172 201.9466 0001548  95.1793 264.9376 15.08837049 74444,6917.889,95.438,540.825,538.684,0.0
53409.0,STARLINK-4490,PAYLOAD,2023-12-08 00:07:29,15.08837871,0.0001512,53.2166,197.4856,100.1562,259.9601,1.0934e-05,-1.14e-06,0.0,0 STARLINK-4490,1 53409U 22097X   23342.00520379 -.00000114  00000-0  10934-4 0  9999,2 53409  53.2166 197.4856 0001512 100.1562 259.9601 15.08837871 74102,6917.887,95.438,540.798,538.706,0.0
53409.0,STARLINK-4490,PAYLOAD,2023-12-09 23:49:04,15.08829836,0.0001466,53.2191,188.563,103.517,256.5986,-1.5169e-05,-5.29e-06,0.0,0 STARLINK-4490,1 53409U 22097X   23343.99241009 -.00000529  00000-0 -15169-4 0  9994,2 53409  53.2191 188.5630 0001466 103.5170 256.5986 15.08829836 74405,6917.911,95.438,540.791,538.762,0.0
53409.0,STARLINK-4490,PAYLOAD,2023-12-10 18:53:41,15.0883719,0.000145,53.2168,184.9967,102.0768,258.0387,3.8598e-05,3.26e-06,0.0,0 STARLINK-4490,1 53409U 22097X   23344.78728611  .00000326  00000-0  38598-4 0  9995,2 53409  53.2168 184.9967 0001450 102.0768 258.0387 15.08837190 74529,6917.889,95.438,540.757,538.751,0.0
53409.0,STARLINK-4490,PAYLOAD,2023-12-10 20:29:04,15.08832517,0.0001492,53.2163,184.6999,101.0583,259.0577,8.3876e-05,1.047e-05,0.0,0 STARLINK-4490,1 53409U 22097X   23344.85352437  .00001047  00000-0  83876-4 0  9992,2 53409  53.2163 184.6999 0001492 101.0583 259.0577 15.08832517 75022,6917.903,95.438,540.8,538.736,0.0
53409.0,STARLINK-4490,PAYLOAD,2023-12-11 20:19:51,15.08837125,0.0001449,53.2163,180.2391,100.5259,259.5897,7.2624e-05,8.68e-06,0.0,0 STARLINK-4490,1 53409U 22097X   23345.84712622  .00000868  00000-0  72624-4 0  9997,2 53409  53.2163 180.2391 0001449 100.5259 259.5897 15.08837125 74687,6917.889,95.438,540.757,538.752,0.0
53409.0,STARLINK-4490,PAYLOAD,2023-12-12 20:10:39,15.08837602,0.0001404,53.2163,175.7791,97.1927,262.9225,3.603e-05,2.85e-06,0.0,0 STARLINK-4490,1 53409U 22097X   23346.84072961  .00000285  00000-0  36030-4 0  9997,2 53409  53.2163 175.7791 0001404  97.1927 262.9225 15.08837602 75329,6917.888,95.438,540.724,538.781,0.0
53409.0,STARLINK-4490,PAYLOAD,2023-12-13 20:01:25,15.08842045,0.0001393,53.2164,171.3188,93.8619,266.2532,7.264e-05,8.68e-06,0.0,0 STARLINK-4490,1 53409U 22097X   23347.83432643  .00000868  00000-0  72640-4 0  9998,2 53409  53.2164 171.3188 0001393  93.8619 266.2532 15.08842045 74986,6917.874,95.437,540.703,538.775,0.0
53409.0,STARLINK-4490,PAYLOAD,2023-12-14 18:16:50,15.08838877,0.0001407,53.2165,167.1552,89.5837,270.5316,4.7844e-05,4.74e-06,0.0,0 STARLINK-4490,1 53409U 22097X   23348.76169040  .00000474  00000-0  47844-4 0  9990,2 53409  53.2165 167.1552 0001407  89.5837 270.5316 15.08838877 75128,6917.884,95.438,540.722,538.775,0.0
53409.0,STARLINK-4490,PAYLOAD,2023-12-15 18:07:36,15.08842119,0.0001438,53.2164,162.6985,89.717,270.3987,4.4314e-05,4.17e-06,0.0,0 STARLINK-4490,1 53409U 22097X   23349.75528880  .00000417  00000-0  44314-4 0  9997,2 53409  53.2164 162.6985 0001438  89.7170 270.3987 15.08842119 75769,6917.874,95.437,540.734,538.744,0.0
53409.0,STARLINK-4490,PAYLOAD,2023-12-16 16:23:00,15.0884355,0.0001396,53.2165,158.5329,94.2034,265.9117,8.0078e-05,9.87e-06,0.0,0 STARLINK-4490,1 53409U 22097X   23350.68264583  .00000987  00000-0  80078-4 0  9997,2 53409  53.2165 158.5329 0001396  94.2034 265.9117 15.08843550 75416,6917.87,95.437,540.7,538.769,0.0
53409.0,STARLINK-4490,PAYLOAD,2023-12-17 14:38:24,15.08840209,0.0001413,53.2173,154.3675,97.7799,262.3354,2.1721e-05,5.8e-07,0.0,0 STARLINK-4490,1 53409U 22097X   23351.61000931  .00000058  00000-0  21721-4 0  9995,2 53409  53.2173 154.3675 0001413  97.7799 262.3354 15.08840209 76041,6917.88,95.438,540.722,538.767,0.0
53409.0,STARLINK-4490,PAYLOAD,2023-12-17 16:13:47,15.08840128,0.0001294,53.2163,154.0711,84.3836,275.7303,1.8343e-05,4e-08,0.0,0 STARLINK-4490,1 53409U 22097X   23351.67624987  .00000004  00000-0  18343-4 0  9991,2 53409  53.2163 154.0711 0001294  84.3836 275.7303 15.08840128 75567,6917.88,95.438,540.64,538.85,0.0
53409.0,STARLINK-4490,PAYLOAD,2023-12-18 14:29:11,15.08841326,0.000129,53.2169,149.9081,72.1475,287.9658,7.493e-05,9.05e-06,0.0,0 STARLINK-4490,1 53409U 22097X   23352.60360715  .00000905  00000-0  74930-4 0  9995,2 53409  53.2169 149.9081 0001290  72.1475 287.9658 15.08841326 76195,6917.876,95.437,540.634,538.849,0.0
53409.0,STARLINK-4490,PAYLOAD,2023-12-18 17:39:57,15.08844897,0.0001286,53.2167,149.313,80.0214,280.0923,9.8571e-05,1.281e-05,0.0,0 STARLINK-4490,1 53409U 22097X   23352.73608387  .00001281  00000-0  98571-4 0  9994,2 53409  53.2167 149.3130 0001286  80.0214 280.0923 15.08844897 75729,6917.865,95.437,540.62,538.841,0.0
53409.0,STARLINK-4490,PAYLOAD,2023-12-19 14:19:58,15.08852578,0.0001168,53.2165,145.4469,95.1516,264.961,-0.00018214,-3.186e-05,0.0,0 STARLINK-4490,1 53409U 22097X   23353.59720931 -.00003186  00000-0 -18214-3 0  9992,2 53409  53.2165 145.4469 0001168  95.1516 264.9610 15.08852578 76348,6917.842,95.437,540.515,538.899,0.0
53409.0,STARLINK-4490,PAYLOAD,2023-12-19 15:55:22,15.08839539,0.0001272,53.2164,145.1496,102.0816,258.0319,4.4626e-05,4.22e-06,0.0,0 STARLINK-4490,1 53409U 22097X   23353.66344909  .00000422  00000-0  44626-4 0  9992,2 53409  53.2164 145.1496 0001272 102.0816 258.0319 15.08839539 75869,6917.882,95.438,540.627,538.867,0.0
53409.0,STARLINK-4490,PAYLOAD,2023-12-20 14:10:46,15.08837405,0.0001177,53.2169,140.9874,85.7292,274.3835,-4.2657e-06,-3.56e-06,0.0,0 STARLINK-4490,1 53409U 22097X   23354.59081501 -.00000356  00000-0 -42657-5 0  9992,2 53409  53.2169 140.9874 0001177  85.7292 274.3835 15.08837405 76490,6917.888,95.438,540.568,538.939,0.0
53409.0,STARLINK-4490,PAYLOAD,2023-12-20 17:21:32,15.08841981,0.000119,53.2169,140.3923,87.2999,272.8129,-5.0342e-06,-3.68e-06,0.0,0 STARLINK-4490,1 53409U 22097X   23354.72329242 -.00000368  00000-0 -50342-5 0  9997,2 53409  53.2169 140.3923 0001190  87.2999 272.8129 15.08841981 76027,6917.874,95.437,540.563,538.916,0.0
53409.0,STARLINK-4490,PAYLOAD,2023-12-21 14:01:33,15.08835021,0.0001162,53.2168,136.5292,80.0276,280.0847,6.8273e-05,7.99e-06,0.0,0 STARLINK-4490,1 53409U 22097X   23355.58441779  .00000799  00000-0  68273-4 0  9999,2 53409  53.2168 136.5292 0001162  80.0276 280.0847 15.08835021 76644,6917.896,95.438,540.564,538.957,0.0
53409.0,STARLINK-4490,PAYLOAD,2023-12-21 15:36:56,15.08837837,0.0001361,53.2163,136.2334,66.7022,293.4113,9.0484e-05,1.152e-05,0.0,0 STARLINK-4490,1 53409U 22097X   23355.65065689  .00001152  00000-0  90484-4 0  9992,2 53409  53.2163 136.2334 0001361  66.7022 293.4113 15.08837837 76656,6917.887,95.438,540.694,538.81,0.0
53409.0,STARLINK-4490,PAYLOAD,2023-12-22 13:52:22,15.08819884,0.0001435,53.2165,132.0706,68.0574,292.057,-4.658e-05,-1.029e-05,0.0,0 STARLINK-4490,1 53409U 22097X   23356.57804225 -.00001029  00000-0 -46580-4 0  9994,2 53409  53.2165 132.0706 0001435  68.0574 292.0570 15.08819884 76793,6917.942,95.439,540.8,538.814,0.0
53409.0,STARLINK-4490,PAYLOAD,2023-12-22 15:27:45,15.08822473,0.0001521,53.2169,131.7717,69.9147,290.2009,-2.6551e-05,-7.1e-06,0.0,0 STARLINK-4490,1 53409U 22097X   23356.64428114 -.00000710  00000-0 -26551-4 0  9993,2 53409  53.2169 131.7717 0001521  69.9147 290.2009 15.08822473 76310,6917.934,95.439,540.851,538.747,0.0
53409.0,STARLINK-4490,PAYLOAD,2023-12-23 08:56:59,15.0884494,0.0001415,53.2184,128.493,106.7893,253.3254,7.0842e-05,8.4e-06,0.0,0 STARLINK-4490,1 53409U 22097X   23357.37290734  .00000840  00000-0  70842-4 0  9993,2 53409  53.2184 128.4930 0001415 106.7893 253.3254 15.08844940 76424,6917.865,95.437,540.709,538.751,0.0
53409.0,STARLINK-4490,PAYLOAD,2023-12-23 13:43:08,15.08848078,0.0002191,53.2167,127.6157,49.0011,311.117,0.00016825,2.391e-05,0.0,0 STARLINK-4490,1 53409U 22097X   23357.57162441  .00002391  00000-0  16825-3 0  9991,2 53409  53.2167 127.6157 0002191  49.0011 311.1170 15.08848078 76943,6917.856,95.437,541.236,538.205,0.0
53409.0,STARLINK-4490,PAYLOAD,2023-12-23 15:18:31,15.0886032,0.0001462,53.217,127.3081,93.8849,266.231,0.0004181,6.376e-05,0.0,0 STARLINK-4490,1 53409U 22097X   23357.63785934  .00006376  00000-0  41810-3 0  9995,2 53409  53.2170 127.3081 0001462  93.8849 266.2310 15.08860320 76463,6917.818,95.436,540.695,538.672,0.0
53409.0,STARLINK-4490,PAYLOAD,2023-12-24 11:58:33,15.08839208,0.0001284,53.217,123.4449,101.1468,258.9668,5.1229e-05,5.28e-06,0.0,0 STARLINK-4490,1 53409U 22097X   23358.49899538  .00000528  00000-0  51229-4 0  9995,2 53409  53.2170 123.4449 0001284 101.1468 258.9668 15.08839208 76599,6917.883,95.438,540.636,538.86,0.0
53409.0,STARLINK-4490,PAYLOAD,2023-12-24 13:33:56,15.08840312,0.0001401,53.2174,123.147,110.2501,249.8642,6.5613e-05,7.56e-06,0.0,0 STARLINK-4490,1 53409U 22097X   23358.56523447  .00000756  00000-0  65613-4 0  9991,2 53409  53.2174 123.1470 0001401 110.2501 249.8642 15.08840312 77099,6917.879,95.438,540.714,538.775,0.0
